ADRAS-J                 
1 58992U 24034A   24294.54970350  .00013975  00000+0  12248-2 0  9993
2 58992  98.2272 273.5179 0042245 358.8617   1.2499 14.96094662 36599
